{"type": "FeatureCollection", "features": [ {"type": "Feature", "properties": {"norad_id": 64901, "name": "CO3D 4", "group": "resource", "lat": 58.759378376775814, "lon": -107.4528757006268, "alt_km": 499.5847923723504, "timestamp": "2025-12-09T16:56:36.238214+00:00", "meta": {"OBJECT_NAME": "CO3D 4", "OBJECT_ID": "2025-156C", "EPOCH": "2025-12-09T11:40:35.217408", "MEAN_MOTION": 15.20214096, "ECCENTRICITY": 0.0001085, "INCLINATION": 97.4339, "RA_OF_ASC_NODE": 59.9005, "ARG_OF_PERICENTER": 214.5382, "MEAN_ANOMALY": 145.5783, "EPHEMERIS_TYPE": 0, "CLASSIFICATION_TYPE": "U", "NORAD_CAT_ID": 64901, "ELEMENT_SET_NO": 999, "REV_AT_EPOCH": 2071, "BSTAR": 0.00044711, "MEAN_MOTION_DOT": 9.627e-05, "MEAN_MOTION_DDOT": 0}, "tle": {"line1": "1 64901U 25156C   25343.48651872  .00009627  00000+0  44711-3 0  9990", "line2": "2 64901  97.4339  59.9005 0001085 214.5382 145.5783 15.20214096 20717"}}, "geometry": {"type": "Point", "coordinates": [-107.4528757006268, 58.759378376775814]}}, {"type": "Feature", "properties": {"norad_id": 64902, "name": "CO3D 2", "group": "resource", "lat": -56.91909921303334, "lon": 71.5499053485222, "alt_km": 506.5342089797805, "timestamp": "2025-12-09T16:56:36.238225+00:00", "meta": {"OBJECT_NAME": "CO3D 2", "OBJECT_ID": "2025-156D", "EPOCH": "2025-12-09T12:27:23.937984", "MEAN_MOTION": 15.20057842, "ECCENTRICITY": 0.0009068, "INCLINATION": 97.4213, "RA_OF_ASC_NODE": 59.8234, "ARG_OF_PERICENTER": 303.4369, "MEAN_ANOMALY": 56.5998, "EPHEMERIS_TYPE": 0, "CLASSIFICATION_TYPE": "U", "NORAD_CAT_ID": 64902, "ELEMENT_SET_NO": 999, "REV_AT_EPOCH": 2071, "BSTAR": 0.00028839, "MEAN_MOTION_DOT": 6.16e-05, "MEAN_MOTION_DDOT": 0}, "tle": {"line1": "1 64902U 25156D   25343.51902706  .00006160  00000+0  28839-3 0  9992", "line2": "2 64902  97.4213  59.8234 0009068 303.4369  56.5998 15.20057842 20717"}}, "geometry": {"type": "Point", "coordinates": [71.5499053485222, -56.91909921303334]}}, {"type": "Feature", "properties": {"norad_id": 64903, "name": "CO3D 1", "group": "resource", "lat": -57.40225573608221, "lon": 71.79723121422772, "alt_km": 512.9465607389784, "timestamp": "2025-12-09T16:56:36.238236+00:00", "meta": {"OBJECT_NAME": "CO3D 1", "OBJECT_ID": "2025-156E", "EPOCH": "2025-12-09T10:52:47.881344", "MEAN_MOTION": 15.20207044, "ECCENTRICITY": 9.68e-05, "INCLINATION": 97.434, "RA_OF_ASC_NODE": 59.7663, "ARG_OF_PERICENTER": 100.2949, "MEAN_ANOMALY": 259.8395, "EPHEMERIS_TYPE": 0, "CLASSIFICATION_TYPE": "U", "NORAD_CAT_ID": 64903, "ELEMENT_SET_NO": 999, "REV_AT_EPOCH": 2070, "BSTAR": 0.00040991, "MEAN_MOTION_DOT": 8.818e-05, "MEAN_MOTION_DDOT": 0}, "tle": {"line1": "1 64903U 25156E   25343.45333196  .00008818  00000+0  40991-3 0  9992", "line2": "2 64903  97.4340  59.7663 0000968 100.2949 259.8395 15.20207044 20700"}}, "geometry": {"type": "Point", "coordinates": [71.79723121422772, -57.40225573608221]}}, {"type": "Feature", "properties": {"norad_id": 66514, "name": "SENTINEL-6B", "group": "resource", "lat": 33.14045535679498, "lon": -28.135500325146534, "alt_km": 1331.4820603150802, "timestamp": "2025-12-09T16:56:36.238246+00:00", "meta": {"OBJECT_NAME": "SENTINEL-6B", "OBJECT_ID": "2025-264A", "EPOCH": "2025-12-08T23:22:28.384896", "MEAN_MOTION": 12.84031992, "ECCENTRICITY": 0.00210406, "INCLINATION": 66.0385, "RA_OF_ASC_NODE": 170.2707, "ARG_OF_PERICENTER": 268.23, "MEAN_ANOMALY": 91.6307, "EPHEMERIS_TYPE": 0, "CLASSIFICATION_TYPE": "U", "NORAD_CAT_ID": 66514, "ELEMENT_SET_NO": 999, "REV_AT_EPOCH": 280, "BSTAR": 0.000106025, "MEAN_MOTION_DOT": -3.6e-07, "MEAN_MOTION_DDOT": 0}, "tle": {"line1": "1 66514U 25264A   25342.97393964 -.00000036  00000+0  10602-3 0  9998", "line2": "2 66514  66.0385 170.2707 0021040 268.2300  91.6307 12.84031992  2809"}}, "geometry": {"type": "Point", "coordinates": [-28.135500325146534, 33.14045535679498]}}]}